GLOBALSTAR M067         
1 32263U 07048A   25134.43938117 -.00000087  00000+0  77209-4 0  9990
2 32263  51.9698 134.6802 0000999 277.6068 247.8680 12.40672306805293
GLOBALSTAR M070         
1 32264U 07048B   25134.48785720 -.00000062  00000+0  23458-3 0  9995
2 32264  51.9746 231.1654 0000587 113.4762 328.0873 12.62317823809415
GLOBALSTAR M066         
1 32265U 07048C   25134.38902006 -.00000106  00000+0 -78209-4 0  9998
2 32265  51.9619 123.3038 0001525 172.1162 336.0676 12.35103809811120
GLOBALSTAR M068         
1 32266U 07048D   25134.53685061 -.00000060  00000+0  24255-3 0  9994
2 32266  51.9904  44.8323 0001664  61.0722 110.3059 12.62823074813598
GLOBALSTAR M079         
1 37188U 10054A   25134.59221573 -.00000073  00000+0  16988-3 0  9991
2 37188  52.0035 242.0532 0000672 157.2110 216.3275 12.62274068672216
GLOBALSTAR M074         
1 37189U 10054B   25134.53958399 -.00000072  00000+0  17599-3 0  9997
2 37189  52.0015 241.5427 0000400 126.5164 246.4552 12.62274951672818
GLOBALSTAR M076         
1 37190U 10054C   25134.56573769 -.00000074  00000+0  16458-3 0  9991
2 37190  52.0025 241.6293 0000382 158.9517 213.9102 12.62262590672538
GLOBALSTAR M077         
1 37191U 10054D   25134.58860958 -.00000066  00000+0  21075-3 0  9995
2 37191  52.0057 198.4086 0000281 143.6594  32.5451 12.62268098672909
